{"type": "FeatureCollection", "features": [ {"type": "Feature", "properties": {"norad_id": 34635, "name": "COSMOS 2251 DEB", "group": "cosmos-2251-debris", "lat": 6.559861385163101, "lon": -125.65903114810345, "alt_km": 655.5401482328161, "timestamp": "2025-12-20T05:41:50.426155+00:00", "meta": {"OBJECT_NAME": "COSMOS 2251 DEB", "OBJECT_ID": "1993-036XG", "EPOCH": "2025-12-19T21:16:15.055104", "MEAN_MOTION": 14.68349898, "ECCENTRICITY": 0.00279826, "INCLINATION": 74.0457, "RA_OF_ASC_NODE": 56.9044, "ARG_OF_PERICENTER": 123.233, "MEAN_ANOMALY": 354.3924, "EPHEMERIS_TYPE": 0, "CLASSIFICATION_TYPE": "U", "NORAD_CAT_ID": 34635, "ELEMENT_SET_NO": 999, "REV_AT_EPOCH": 73324, "BSTAR": 0.0006780764, "MEAN_MOTION_DOT": 3.911e-05, "MEAN_MOTION_DDOT": 0}, "tle": {"line1": "1 34635U 93036XG  25353.88628536  .00003911  00000+0  67808-3 0  9991", "line2": "2 34635  74.0457  56.9044 0027982 123.2330 354.3924 14.68349898733249"}}, "geometry": {"type": "Point", "coordinates": [-125.65903114810345, 6.559861385163101]}}, {"type": "Feature", "properties": {"norad_id": 34637, "name": "COSMOS 2251 DEB", "group": "cosmos-2251-debris", "lat": 36.224352335234194, "lon": -105.23507603054823, "alt_km": 655.9166704723702, "timestamp": "2025-12-20T05:41:50.426165+00:00", "meta": {"OBJECT_NAME": "COSMOS 2251 DEB", "OBJECT_ID": "1993-036XJ", "EPOCH": "2025-12-19T06:10:11.394912", "MEAN_MOTION": 14.60150921, "ECCENTRICITY": 0.0049253, "INCLINATION": 74.0498, "RA_OF_ASC_NODE": 88.7269, "ARG_OF_PERICENTER": 157.5379, "MEAN_ANOMALY": 233.6347, "EPHEMERIS_TYPE": 0, "CLASSIFICATION_TYPE": "U", "NORAD_CAT_ID": 34637, "ELEMENT_SET_NO": 999, "REV_AT_EPOCH": 88622, "BSTAR": 0.0005869, "MEAN_MOTION_DOT": 2.845e-05, "MEAN_MOTION_DDOT": 0}, "tle": {"line1": "1 34637U 93036XJ  25353.25707633  .00002845  00000+0  58690-3 0  9994", "line2": "2 34637  74.0498  88.7269 0049253 157.5379 233.6347 14.60150921886220"}}, "geometry": {"type": "Point", "coordinates": [-105.23507603054823, 36.224352335234194]}}, {"type": "Feature", "properties": {"norad_id": 34641, "name": "COSMOS 2251 DEB", "group": "cosmos-2251-debris", "lat": -73.20867767300543, "lon": -6.579149751959967, "alt_km": 720.4113202982126, "timestamp": "2025-12-20T05:41:50.426176+00:00", "meta": {"OBJECT_NAME": "COSMOS 2251 DEB", "OBJECT_ID": "1993-036XN", "EPOCH": "2025-12-19T11:59:01.877856", "MEAN_MOTION": 14.52049341, "ECCENTRICITY": 0.0018811, "INCLINATION": 73.8398, "RA_OF_ASC_NODE": 68.7592, "ARG_OF_PERICENTER": 341.9926, "MEAN_ANOMALY": 36.2191, "EPHEMERIS_TYPE": 0, "CLASSIFICATION_TYPE": "U", "NORAD_CAT_ID": 34641, "ELEMENT_SET_NO": 999, "REV_AT_EPOCH": 88354, "BSTAR": 0.00059825, "MEAN_MOTION_DOT": 2.396e-05, "MEAN_MOTION_DDOT": 0}, "tle": {"line1": "1 34641U 93036XN  25353.49932729  .00002396  00000+0  59825-3 0  9993", "line2": "2 34641  73.8398  68.7592 0018811 341.9926  36.2191 14.52049341883541"}}, "geometry": {"type": "Point", "coordinates": [-6.579149751959967, -73.20867767300543]}}, {"type": "Feature", "properties": {"norad_id": 34642, "name": "COSMOS 2251 DEB", "group": "cosmos-2251-debris", "lat": 6.280569566446129, "lon": -31.37665514478959, "alt_km": 1009.8221764709788, "timestamp": "2025-12-20T05:41:50.426186+00:00", "meta": {"OBJECT_NAME": "COSMOS 2251 DEB", "OBJECT_ID": "1993-036XP", "EPOCH": "2025-12-19T16:47:36.276288", "MEAN_MOTION": 13.98991151, "ECCENTRICITY": 0.02066861, "INCLINATION": 74.0042, "RA_OF_ASC_NODE": 327.7452, "ARG_OF_PERICENTER": 145.9553, "MEAN_ANOMALY": 35.4618, "EPHEMERIS_TYPE": 0, "CLASSIFICATION_TYPE": "U", "NORAD_CAT_ID": 34642, "ELEMENT_SET_NO": 999, "REV_AT_EPOCH": 85390, "BSTAR": 0.00059559157, "MEAN_MOTION_DOT": 1.011e-05, "MEAN_MOTION_DDOT": 0}, "tle": {"line1": "1 34642U 93036XP  25353.69972542  .00001011  00000+0  59559-3 0  9990", "line2": "2 34642  74.0042 327.7452 0206686 145.9553  35.4618 13.98991151853907"}}, "geometry": {"type": "Point", "coordinates": [-31.37665514478959, 6.280569566446129]}}, {"type": "Feature", "properties": {"norad_id": 34671, "name": "COSMOS 2251 DEB", "group": "cosmos-2251-debris", "lat": 58.211073199020724, "lon": 147.3476401517084, "alt_km": 670.2977944826216, "timestamp": "2025-12-20T05:41:50.426197+00:00", "meta": {"OBJECT_NAME": "COSMOS 2251 DEB", "OBJECT_ID": "1993-036XR", "EPOCH": "2025-12-19T14:45:15.981120", "MEAN_MOTION": 14.67045101, "ECCENTRICITY": 0.0010962, "INCLINATION": 74.0268, "RA_OF_ASC_NODE": 121.0225, "ARG_OF_PERICENTER": 201.8745, "MEAN_ANOMALY": 173.474, "EPHEMERIS_TYPE": 0, "CLASSIFICATION_TYPE": "U", "NORAD_CAT_ID": 34671, "ELEMENT_SET_NO": 999, "REV_AT_EPOCH": 88398, "BSTAR": 0.0010446, "MEAN_MOTION_DOT": 5.839e-05, "MEAN_MOTION_DDOT": 0}, "tle": {"line1": "1 34671U 93036XR  25353.61476830  .00005839  00000+0  10446-2 0  9996", "line2": "2 34671  74.0268 121.0225 0010962 201.8745 173.4740 14.67045101883989"}}, "geometry": {"type": "Point", "coordinates": [147.3476401517084, 58.211073199020724]}}, {"type": "Feature", "properties": {"norad_id": 34672, "name": "COSMOS 2251 DEB", "group": "cosmos-2251-debris", "lat": 40.86972236888442, "lon": 97.47141976666178, "alt_km": 778.88736098964, "timestamp": "2025-12-20T05:41:50.426207+00:00", "meta": {"OBJECT_NAME": "COSMOS 2251 DEB", "OBJECT_ID": "1993-036XS", "EPOCH": "2025-12-18T13:28:46.255872", "MEAN_MOTION": 14.36417673, "ECCENTRICITY": 0.00241418, "INCLINATION": 74.0338, "RA_OF_ASC_NODE": 294.8922, "ARG_OF_PERICENTER": 5.7391, "MEAN_ANOMALY": 109.133, "EPHEMERIS_TYPE": 0, "CLASSIFICATION_TYPE": "U", "NORAD_CAT_ID": 34672, "ELEMENT_SET_NO": 999, "REV_AT_EPOCH": 65261, "BSTAR": 0.00020838077, "MEAN_MOTION_DOT": 5.86e-06, "MEAN_MOTION_DDOT": 0}, "tle": {"line1": "1 34672U 93036XS  25352.56164648  .00000586  00000+0  20838-3 0  9992", "line2": "2 34672  74.0338 294.8922 0024141   5.7391 109.1330 14.36417673652611"}}, "geometry": {"type": "Point", "coordinates": [97.47141976666178, 40.86972236888442]}}, {"type": "Feature", "properties": {"norad_id": 34678, "name": "COSMOS 2251 DEB", "group": "cosmos-2251-debris", "lat": 29.76675432753408, "lon": 162.64109978521182, "alt_km": 795.5973983915474, "timestamp": "2025-12-20T05:41:50.426237+00:00", "meta": {"OBJECT_NAME": "COSMOS 2251 DEB", "OBJECT_ID": "1993-036XY", "EPOCH": "2025-12-18T11:45:31.328352", "MEAN_MOTION": 14.30066037, "ECCENTRICITY": 0.00245747, "INCLINATION": 74.0376, "RA_OF_ASC_NODE": 355.2383, "ARG_OF_PERICENTER": 42.5322, "MEAN_ANOMALY": 113.3622, "EPHEMERIS_TYPE": 0, "CLASSIFICATION_TYPE": "U", "NORAD_CAT_ID": 34678, "ELEMENT_SET_NO": 999, "REV_AT_EPOCH": 87461, "BSTAR": 2.9350181e-05, "MEAN_MOTION_DOT": 5e-07, "MEAN_MOTION_DDOT": 0}, "tle": {"line1": "1 34678U 93036XY  25352.48994593  .00000050  00000+0  29350-4 0  9994", "line2": "2 34678  74.0376 355.2383 0024574  42.5322 113.3622 14.30066037874610"}}, "geometry": {"type": "Point", "coordinates": [162.64109978521182, 29.76675432753408]}}, {"type": "Feature", "properties": {"norad_id": 34680, "name": "COSMOS 2251 DEB", "group": "cosmos-2251-debris", "lat": 4.090590079781406, "lon": -65.62990143949553, "alt_km": 689.4181540953605, "timestamp": "2025-12-20T05:41:50.426248+00:00", "meta": {"OBJECT_NAME": "COSMOS 2251 DEB", "OBJECT_ID": "1993-036YA", "EPOCH": "2025-12-18T08:39:27.142848", "MEAN_MOTION": 14.60682322, "ECCENTRICITY": 0.00065553, "INCLINATION": 74.0428, "RA_OF_ASC_NODE": 119.1245, "ARG_OF_PERICENTER": 218.9141, "MEAN_ANOMALY": 172.4418, "EPHEMERIS_TYPE": 0, "CLASSIFICATION_TYPE": "U", "NORAD_CAT_ID": 34680, "ELEMENT_SET_NO": 999, "REV_AT_EPOCH": 88410, "BSTAR": 0.00092042138, "MEAN_MOTION_DOT": 4.458e-05, "MEAN_MOTION_DDOT": 0}, "tle": {"line1": "1 34680U 93036YA  25352.36073082  .00004458  00000+0  92042-3 0  9998", "line2": "2 34680  74.0428 119.1245 0006555 218.9141 172.4418 14.60682322884100"}}, "geometry": {"type": "Point", "coordinates": [-65.62990143949553, 4.090590079781406]}}, {"type": "Feature", "properties": {"norad_id": 34681, "name": "COSMOS 2251 DEB", "group": "cosmos-2251-debris", "lat": -61.07396422318153, "lon": -115.56124316809279, "alt_km": 611.0839442383885, "timestamp": "2025-12-20T05:41:50.426258+00:00", "meta": {"OBJECT_NAME": "COSMOS 2251 DEB", "OBJECT_ID": "1993-036YB", "EPOCH": "2025-12-19T20:31:54.971904", "MEAN_MOTION": 14.83371601, "ECCENTRICITY": 0.00256549, "INCLINATION": 74.0633, "RA_OF_ASC_NODE": 276.3291, "ARG_OF_PERICENTER": 332.058, "MEAN_ANOMALY": 84.1264, "EPHEMERIS_TYPE": 0, "CLASSIFICATION_TYPE": "U", "NORAD_CAT_ID": 34681, "ELEMENT_SET_NO": 999, "REV_AT_EPOCH": 89376, "BSTAR": 0.00094039575, "MEAN_MOTION_DOT": 7.73e-05, "MEAN_MOTION_DDOT": 0}, "tle": {"line1": "1 34681U 93036YB  25353.85549736  .00007730  00000+0  94040-3 0  9994", "line2": "2 34681  74.0633 276.3291 0025654 332.0580  84.1264 14.83371601893762"}}, "geometry": {"type": "Point", "coordinates": [-115.56124316809279, -61.07396422318153]}}, {"type": "Feature", "properties": {"norad_id": 34682, "name": "COSMOS 2251 DEB", "group": "cosmos-2251-debris", "lat": 63.81458119571813, "lon": -146.87997154441388, "alt_km": 690.0028902054382, "timestamp": "2025-12-20T05:41:50.426269+00:00", "meta": {"OBJECT_NAME": "COSMOS 2251 DEB", "OBJECT_ID": "1993-036YC", "EPOCH": "2025-12-19T23:25:33.062304", "MEAN_MOTION": 14.58941947, "ECCENTRICITY": 0.00179866, "INCLINATION": 74.0399, "RA_OF_ASC_NODE": 69.2067, "ARG_OF_PERICENTER": 201.6181, "MEAN_ANOMALY": 337.6822, "EPHEMERIS_TYPE": 0, "CLASSIFICATION_TYPE": "U", "NORAD_CAT_ID": 34682, "ELEMENT_SET_NO": 999, "REV_AT_EPOCH": 88791, "BSTAR": 0.00048085137, "MEAN_MOTION_DOT": 2.231e-05, "MEAN_MOTION_DDOT": 0}, "tle": {"line1": "1 34682U 93036YC  25353.97607711  .00002231  00000+0  48085-3 0  9995", "line2": "2 34682  74.0399  69.2067 0017986 201.6181 337.6822 14.58941947887913"}}, "geometry": {"type": "Point", "coordinates": [-146.87997154441388, 63.81458119571813]}}]}